{
"type": "FeatureCollection",
"name": "osm_landuse",
"crs": { "type": "name", "properties": { "name": "urn:ogc:def:crs:OGC:1.3:CRS84" } },
"features": [
{ "type": "Feature", "properties": { "element": "way", "id": 931567911, "landuse": "industrial", "name": null, "ele": null, "gnis:feature_id": null, "addr:city": null, "addr:housenumber": null, "addr:postcode": null, "addr:state": null, "addr:street": null, "residential": null, "denomination": null, "religion": null, "industrial": null }, "geometry": { "type": "Polygon", "coordinates": [ [ [ -99.7874987, 29.1952323 ], [ -99.7887513, 29.1946446 ], [ -99.7895355, 29.1940939 ], [ -99.7903574, 29.1956111 ], [ -99.7878603, 29.196642 ], [ -99.7872842, 29.1955726 ], [ -99.7874987, 29.1952323 ] ] ] } },
{ "type": "Feature", "properties": { "element": "way", "id": 499991409, "landuse": "residential", "name": "La Quinta Apartments", "ele": null, "gnis:feature_id": null, "addr:city": "Uvalde", "addr:housenumber": "735", "addr:postcode": "78801", "addr:state": "TX", "addr:street": "Evans Street", "residential": "apartments", "denomination": null, "religion": null, "industrial": null }, "geometry": { "type": "Polygon", "coordinates": [ [ [ -99.7915042, 29.1951148 ], [ -99.7931728, 29.1944614 ], [ -99.7938137, 29.1957086 ], [ -99.7921451, 29.1963621 ], [ -99.7915042, 29.1951148 ] ] ] } },
{ "type": "Feature", "properties": { "element": "way", "id": 1064571476, "landuse": "industrial", "name": null, "ele": null, "gnis:feature_id": null, "addr:city": null, "addr:housenumber": null, "addr:postcode": null, "addr:state": null, "addr:street": null, "residential": null, "denomination": null, "religion": null, "industrial": "scrap_yard" }, "geometry": { "type": "Polygon", "coordinates": [ [ [ -99.8106054, 29.1966528 ], [ -99.809046, 29.1972971 ], [ -99.8085385, 29.1962726 ], [ -99.8101311, 29.1957123 ], [ -99.8106054, 29.1966528 ] ] ] } },
{ "type": "Feature", "properties": { "element": "way", "id": 1064570568, "landuse": "cemetery", "name": "Uvalde Catholic Cemetery", "ele": null, "gnis:feature_id": null, "addr:city": null, "addr:housenumber": null, "addr:postcode": null, "addr:state": null, "addr:street": null, "residential": null, "denomination": "catholic", "religion": "christian", "industrial": null }, "geometry": { "type": "Polygon", "coordinates": [ [ [ -99.809046, 29.1972971 ], [ -99.8106054, 29.1966528 ], [ -99.8120574, 29.196053 ], [ -99.8124738, 29.1967608 ], [ -99.8094147, 29.1979617 ], [ -99.809046, 29.1972971 ] ] ] } },
{ "type": "Feature", "properties": { "element": "way", "id": 323735431, "landuse": "cemetery", "name": "City of Uvalde Cemetery", "ele": null, "gnis:feature_id": null, "addr:city": null, "addr:housenumber": null, "addr:postcode": null, "addr:state": null, "addr:street": null, "residential": null, "denomination": null, "religion": null, "industrial": null }, "geometry": { "type": "Polygon", "coordinates": [ [ [ -99.8094147, 29.1979617 ], [ -99.8124738, 29.1967608 ], [ -99.8134994, 29.198826 ], [ -99.8120078, 29.1994335 ], [ -99.8104915, 29.200024 ], [ -99.8094147, 29.1979617 ] ] ] } },
{ "type": "Feature", "properties": { "element": "way", "id": 323735432, "landuse": "cemetery", "name": "Hillcrest Memorial Cemetery", "ele": null, "gnis:feature_id": null, "addr:city": null, "addr:housenumber": null, "addr:postcode": null, "addr:state": null, "addr:street": null, "residential": null, "denomination": null, "religion": null, "industrial": null }, "geometry": { "type": "Polygon", "coordinates": [ [ [ -99.8105224, 29.2004246 ], [ -99.8105605, 29.2003828 ], [ -99.8111757, 29.2001777 ], [ -99.8117201, 29.2000119 ], [ -99.8128681, 29.1997601 ], [ -99.8142401, 29.2024699 ], [ -99.8120198, 29.2033821 ], [ -99.8105244, 29.2004737 ], [ -99.8105224, 29.2004246 ] ] ] } },
{ "type": "Feature", "properties": { "element": "way", "id": 1063690663, "landuse": "grass", "name": null, "ele": null, "gnis:feature_id": null, "addr:city": null, "addr:housenumber": null, "addr:postcode": null, "addr:state": null, "addr:street": null, "residential": null, "denomination": null, "religion": null, "industrial": null }, "geometry": { "type": "Polygon", "coordinates": [ [ [ -99.8043829, 29.2028582 ], [ -99.8044361, 29.202891 ], [ -99.8044463, 29.2028973 ], [ -99.8044505, 29.2029229 ], [ -99.8044296, 29.2029543 ], [ -99.8043927, 29.2029887 ], [ -99.8043357, 29.2030026 ], [ -99.8043114, 29.2030407 ], [ -99.8042997, 29.2030692 ], [ -99.80422, 29.2029682 ], [ -99.8037623, 29.2031469 ], [ -99.8038037, 29.203236 ], [ -99.8037821, 29.2032431 ], [ -99.8037597, 29.2031984 ], [ -99.8037497, 29.2032017 ], [ -99.8037899, 29.2032721 ], [ -99.8037737, 29.2032788 ], [ -99.8037686, 29.2032868 ], [ -99.8037305, 29.2032743 ], [ -99.8037289, 29.2032588 ], [ -99.8037108, 29.2032461 ], [ -99.8036851, 29.2032444 ], [ -99.8036663, 29.2032502 ], [ -99.8036524, 29.2032641 ], [ -99.8036505, 29.2032918 ], [ -99.8036606, 29.2033034 ], [ -99.8036803, 29.2033176 ], [ -99.8037152, 29.2033109 ], [ -99.8037562, 29.2033204 ], [ -99.8037613, 29.2033348 ], [ -99.8037597, 29.2033392 ], [ -99.803633, 29.2033855 ], [ -99.8036204, 29.2033865 ], [ -99.8035924, 29.2033826 ], [ -99.8035472, 29.203373 ], [ -99.8035284, 29.2033638 ], [ -99.8035079, 29.2033513 ], [ -99.8034968, 29.2033387 ], [ -99.8034648, 29.2032736 ], [ -99.8033934, 29.203303 ], [ -99.8033804, 29.2033019 ], [ -99.803356, 29.2032546 ], [ -99.8033428, 29.2032189 ], [ -99.803345, 29.203189 ], [ -99.8033627, 29.2031668 ], [ -99.8043127, 29.2027874 ], [ -99.8043393, 29.2027816 ], [ -99.8043829, 29.2028582 ] ] ] } },
{ "type": "Feature", "properties": { "element": "way", "id": 1063690664, "landuse": "grass", "name": null, "ele": null, "gnis:feature_id": null, "addr:city": null, "addr:housenumber": null, "addr:postcode": null, "addr:state": null, "addr:street": null, "residential": null, "denomination": null, "religion": null, "industrial": null }, "geometry": { "type": "Polygon", "coordinates": [ [ [ -99.8038702, 29.2035177 ], [ -99.803583, 29.203632 ], [ -99.8035685, 29.203632 ], [ -99.803556, 29.2036227 ], [ -99.8035541, 29.2036126 ], [ -99.803556, 29.2036059 ], [ -99.8036225, 29.2035799 ], [ -99.803582, 29.2035009 ], [ -99.8035743, 29.2034714 ], [ -99.803583, 29.2034303 ], [ -99.8035936, 29.2034067 ], [ -99.8037168, 29.203363 ], [ -99.8037704, 29.2034594 ], [ -99.8038274, 29.2034369 ], [ -99.8038758, 29.2034178 ], [ -99.8038888, 29.2034397 ], [ -99.8039056, 29.2034485 ], [ -99.8039225, 29.2034552 ], [ -99.8039389, 29.2034561 ], [ -99.8039527, 29.2034849 ], [ -99.8038702, 29.2035177 ] ] ] } },
{ "type": "Feature", "properties": { "element": "way", "id": 1063690680, "landuse": "grass", "name": null, "ele": null, "gnis:feature_id": null, "addr:city": null, "addr:housenumber": null, "addr:postcode": null, "addr:state": null, "addr:street": null, "residential": null, "denomination": null, "religion": null, "industrial": null }, "geometry": { "type": "Polygon", "coordinates": [ [ [ -99.8038388, 29.2039207 ], [ -99.8039187, 29.2039274 ], [ -99.8044165, 29.2037509 ], [ -99.8043953, 29.2036913 ], [ -99.8047525, 29.2035534 ], [ -99.8048007, 29.2036383 ], [ -99.8048109, 29.2036485 ], [ -99.8048469, 29.2036845 ], [ -99.8038359, 29.2040938 ], [ -99.8038176, 29.204098 ], [ -99.8037878, 29.2040922 ], [ -99.8037454, 29.2040737 ], [ -99.803627, 29.2038694 ], [ -99.8035721, 29.2037585 ], [ -99.8035692, 29.2037358 ], [ -99.8037002, 29.2036761 ], [ -99.8038388, 29.2039207 ] ] ] } },
{ "type": "Feature", "properties": { "element": "way", "id": 1135387217, "landuse": "retail", "name": null, "ele": null, "gnis:feature_id": null, "addr:city": null, "addr:housenumber": null, "addr:postcode": null, "addr:state": null, "addr:street": null, "residential": null, "denomination": null, "religion": null, "industrial": null }, "geometry": { "type": "Polygon", "coordinates": [ [ [ -99.7928453, 29.2081518 ], [ -99.7925229, 29.20751 ], [ -99.7936455, 29.2070532 ], [ -99.7939643, 29.2076538 ], [ -99.7928453, 29.2081518 ] ] ] } },
{ "type": "Feature", "properties": { "element": "way", "id": 1064485351, "landuse": "residential", "name": "Granada Apartments", "ele": null, "gnis:feature_id": null, "addr:city": "Uvalde", "addr:housenumber": "834", "addr:postcode": "78801", "addr:state": "TX", "addr:street": "South Getty Street", "residential": "apartments", "denomination": null, "religion": null, "industrial": null }, "geometry": { "type": "Polygon", "coordinates": [ [ [ -99.777641, 29.1979992 ], [ -99.7766761, 29.196955 ], [ -99.77861, 29.1961857 ], [ -99.7792081, 29.1975432 ], [ -99.777641, 29.1979992 ] ] ] } },
{ "type": "Feature", "properties": { "element": "way", "id": 1166211765, "landuse": "farmland", "name": null, "ele": null, "gnis:feature_id": null, "addr:city": null, "addr:housenumber": null, "addr:postcode": null, "addr:state": null, "addr:street": null, "residential": null, "denomination": null, "religion": null, "industrial": null }, "geometry": { "type": "Polygon", "coordinates": [ [ [ -99.7456862, 29.2089131 ], [ -99.7440293, 29.2057882 ], [ -99.748899, 29.2038754 ], [ -99.7489929, 29.2039024 ], [ -99.7505408, 29.2069357 ], [ -99.7456862, 29.2089131 ] ] ] } },
{ "type": "Feature", "properties": { "element": "way", "id": 1166211766, "landuse": "farmland", "name": null, "ele": null, "gnis:feature_id": null, "addr:city": null, "addr:housenumber": null, "addr:postcode": null, "addr:state": null, "addr:street": null, "residential": null, "denomination": null, "religion": null, "industrial": null }, "geometry": { "type": "Polygon", "coordinates": [ [ [ -99.7472119, 29.211338 ], [ -99.7470228, 29.2114234 ], [ -99.7456862, 29.2089131 ], [ -99.7505408, 29.2069357 ], [ -99.7529881, 29.2114984 ], [ -99.7482853, 29.2134201 ], [ -99.7472119, 29.211338 ] ] ] } },
{ "type": "Feature", "properties": { "element": "way", "id": 1063718217, "landuse": "grass", "name": null, "ele": null, "gnis:feature_id": null, "addr:city": null, "addr:housenumber": null, "addr:postcode": null, "addr:state": null, "addr:street": null, "residential": null, "denomination": null, "religion": null, "industrial": null }, "geometry": { "type": "Polygon", "coordinates": [ [ [ -99.7808456, 29.2114213 ], [ -99.7809073, 29.2113997 ], [ -99.7809139, 29.2114111 ], [ -99.7809088, 29.2114213 ], [ -99.7808533, 29.2114396 ], [ -99.7808456, 29.2114213 ] ] ] } },
{ "type": "Feature", "properties": { "element": "way", "id": 1063718216, "landuse": "grass", "name": null, "ele": null, "gnis:feature_id": null, "addr:city": null, "addr:housenumber": null, "addr:postcode": null, "addr:state": null, "addr:street": null, "residential": null, "denomination": null, "religion": null, "industrial": null }, "geometry": { "type": "Polygon", "coordinates": [ [ [ -99.7816121, 29.2112497 ], [ -99.7816172, 29.2112353 ], [ -99.781635, 29.2112247 ], [ -99.7816572, 29.2112253 ], [ -99.7816674, 29.211233 ], [ -99.7817328, 29.21139 ], [ -99.7817328, 29.2114121 ], [ -99.7817207, 29.2114265 ], [ -99.7817074, 29.211436 ], [ -99.7816864, 29.2114387 ], [ -99.7816724, 29.2114326 ], [ -99.7816623, 29.2114199 ], [ -99.781654, 29.211396 ], [ -99.7815918, 29.2114221 ], [ -99.7816108, 29.2114709 ], [ -99.7811287, 29.21162 ], [ -99.7810969, 29.211604 ], [ -99.7810753, 29.2115779 ], [ -99.7810004, 29.2113722 ], [ -99.7811928, 29.2113057 ], [ -99.781236, 29.2114138 ], [ -99.7816247, 29.2112802 ], [ -99.7816121, 29.2112497 ] ] ] } },
{ "type": "Feature", "properties": { "element": "way", "id": 1063718255, "landuse": "grass", "name": null, "ele": null, "gnis:feature_id": null, "addr:city": null, "addr:housenumber": null, "addr:postcode": null, "addr:state": null, "addr:street": null, "residential": null, "denomination": null, "religion": null, "industrial": null }, "geometry": { "type": "Polygon", "coordinates": [ [ [ -99.7815164, 29.2117996 ], [ -99.7814851, 29.2117321 ], [ -99.7810144, 29.2119047 ], [ -99.7810327, 29.2119346 ], [ -99.7809933, 29.2119474 ], [ -99.7809225, 29.2117901 ], [ -99.7809276, 29.2117703 ], [ -99.780948, 29.2117569 ], [ -99.7814712, 29.2116015 ], [ -99.7815566, 29.2117862 ], [ -99.7815164, 29.2117996 ] ] ] } },
{ "type": "Feature", "properties": { "element": "way", "id": 1063718256, "landuse": "grass", "name": null, "ele": null, "gnis:feature_id": null, "addr:city": null, "addr:housenumber": null, "addr:postcode": null, "addr:state": null, "addr:street": null, "residential": null, "denomination": null, "religion": null, "industrial": null }, "geometry": { "type": "Polygon", "coordinates": [ [ [ -99.7810453, 29.2119509 ], [ -99.7810718, 29.2120156 ], [ -99.7811072, 29.2120031 ], [ -99.7811282, 29.2120513 ], [ -99.781209, 29.2120243 ], [ -99.7812775, 29.2121884 ], [ -99.7812377, 29.2121961 ], [ -99.7812853, 29.2123072 ], [ -99.7813851, 29.2123243 ], [ -99.7813218, 29.2123427 ], [ -99.7814365, 29.2126434 ], [ -99.7813646, 29.212655 ], [ -99.7812785, 29.2123642 ], [ -99.7812101, 29.2122101 ], [ -99.781084, 29.2121054 ], [ -99.7810033, 29.2119674 ], [ -99.7810453, 29.2119509 ] ] ] } },
{ "type": "Feature", "properties": { "element": "way", "id": 1475090936, "landuse": "commercial", "name": "Hotel Isabella", "ele": null, "gnis:feature_id": null, "addr:city": "Uvalde", "addr:housenumber": "801", "addr:postcode": "78801", "addr:state": "TX", "addr:street": "East Main Street", "residential": null, "denomination": null, "religion": null, "industrial": null }, "geometry": { "type": "Polygon", "coordinates": [ [ [ -99.7736924, 29.2149811 ], [ -99.7729319, 29.2153164 ], [ -99.772519, 29.2145628 ], [ -99.7732648, 29.2142347 ], [ -99.7736924, 29.2149811 ] ] ] } },
{ "type": "Feature", "properties": { "element": "way", "id": 1064491012, "landuse": "residential", "name": "Uvalde Flats Apartments", "ele": null, "gnis:feature_id": null, "addr:city": "Uvalde", "addr:housenumber": "1510", "addr:postcode": "78801", "addr:state": "TX", "addr:street": "Garner Field Road", "residential": "apartments", "denomination": null, "religion": null, "industrial": null }, "geometry": { "type": "Polygon", "coordinates": [ [ [ -99.7611455, 29.2186752 ], [ -99.7600252, 29.2190088 ], [ -99.7596844, 29.2187657 ], [ -99.7593554, 29.2180311 ], [ -99.7606624, 29.217656 ], [ -99.7611455, 29.2186752 ] ] ] } },
{ "type": "Feature", "properties": { "element": "way", "id": 1064491013, "landuse": "residential", "name": "Landmark Apartments", "ele": null, "gnis:feature_id": null, "addr:city": "Uvalde", "addr:housenumber": "1518", "addr:postcode": "78801", "addr:state": "TX", "addr:street": "Garner Field Road", "residential": "apartments", "denomination": null, "religion": null, "industrial": null }, "geometry": { "type": "Polygon", "coordinates": [ [ [ -99.7597436, 29.2195391 ], [ -99.7592991, 29.2197227 ], [ -99.7591746, 29.2194925 ], [ -99.75857, 29.2197486 ], [ -99.7584989, 29.2196348 ], [ -99.7584751, 29.2195417 ], [ -99.758324, 29.2192753 ], [ -99.7583359, 29.2190244 ], [ -99.7585492, 29.2188019 ], [ -99.7586322, 29.2185432 ], [ -99.7585196, 29.2183053 ], [ -99.7592991, 29.2180699 ], [ -99.75988, 29.219296 ], [ -99.7597436, 29.2195391 ] ] ] } },
{ "type": "Feature", "properties": { "element": "way", "id": 1135387220, "landuse": "retail", "name": null, "ele": null, "gnis:feature_id": null, "addr:city": null, "addr:housenumber": null, "addr:postcode": null, "addr:state": null, "addr:street": null, "residential": null, "denomination": null, "religion": null, "industrial": null }, "geometry": { "type": "Polygon", "coordinates": [ [ [ -99.7884804, 29.209694 ], [ -99.7881093, 29.209807 ], [ -99.7878313, 29.2091558 ], [ -99.7881916, 29.2090419 ], [ -99.7884804, 29.209694 ] ] ] } },
{ "type": "Feature", "properties": { "element": "way", "id": 1135387221, "landuse": "retail", "name": null, "ele": null, "gnis:feature_id": null, "addr:city": null, "addr:housenumber": null, "addr:postcode": null, "addr:state": null, "addr:street": null, "residential": null, "denomination": null, "religion": null, "industrial": null }, "geometry": { "type": "Polygon", "coordinates": [ [ [ -99.7877671, 29.2095593 ], [ -99.7872242, 29.2097325 ], [ -99.7870897, 29.2093979 ], [ -99.7876255, 29.2092259 ], [ -99.7877671, 29.2095593 ] ] ] } },
{ "type": "Feature", "properties": { "element": "way", "id": 1135387062, "landuse": "retail", "name": null, "ele": null, "gnis:feature_id": null, "addr:city": null, "addr:housenumber": null, "addr:postcode": null, "addr:state": null, "addr:street": null, "residential": null, "denomination": null, "religion": null, "industrial": null }, "geometry": { "type": "Polygon", "coordinates": [ [ [ -99.7821346, 29.2104319 ], [ -99.7824432, 29.2103427 ], [ -99.7822355, 29.2098222 ], [ -99.7819184, 29.2099187 ], [ -99.7817021, 29.2094107 ], [ -99.7834576, 29.208856 ], [ -99.7837175, 29.2094886 ], [ -99.7849388, 29.2091102 ], [ -99.7850548, 29.209167 ], [ -99.7852318, 29.2095895 ], [ -99.7846746, 29.2097597 ], [ -99.7847456, 29.2098975 ], [ -99.782235, 29.2106601 ], [ -99.7821346, 29.2104319 ] ] ] } },
{ "type": "Feature", "properties": { "element": "way", "id": 1135387222, "landuse": "commercial", "name": null, "ele": null, "gnis:feature_id": null, "addr:city": null, "addr:housenumber": null, "addr:postcode": null, "addr:state": null, "addr:street": null, "residential": null, "denomination": null, "religion": null, "industrial": null }, "geometry": { "type": "Polygon", "coordinates": [ [ [ -99.7877763, 29.2095733 ], [ -99.7879073, 29.2098897 ], [ -99.7873497, 29.2100611 ], [ -99.7872299, 29.2097497 ], [ -99.7877763, 29.2095733 ] ] ] } },
{ "type": "Feature", "properties": { "element": "way", "id": 1135388134, "landuse": "retail", "name": null, "ele": null, "gnis:feature_id": null, "addr:city": null, "addr:housenumber": null, "addr:postcode": null, "addr:state": null, "addr:street": null, "residential": null, "denomination": null, "religion": null, "industrial": null }, "geometry": { "type": "Polygon", "coordinates": [ [ [ -99.7842048, 29.2103415 ], [ -99.7847864, 29.2101581 ], [ -99.7850485, 29.2107911 ], [ -99.7844668, 29.2109745 ], [ -99.7842048, 29.2103415 ] ] ] } },
{ "type": "Feature", "properties": { "element": "way", "id": 1135388132, "landuse": "commercial", "name": null, "ele": null, "gnis:feature_id": null, "addr:city": null, "addr:housenumber": null, "addr:postcode": null, "addr:state": null, "addr:street": null, "residential": null, "denomination": null, "religion": null, "industrial": null }, "geometry": { "type": "Polygon", "coordinates": [ [ [ -99.7860989, 29.2112493 ], [ -99.785968, 29.2109262 ], [ -99.7861689, 29.2108675 ], [ -99.7861102, 29.210701 ], [ -99.78654, 29.2105688 ], [ -99.7867436, 29.2110596 ], [ -99.7860989, 29.2112493 ] ] ] } },
{ "type": "Feature", "properties": { "element": "way", "id": 1063718218, "landuse": "grass", "name": null, "ele": null, "gnis:feature_id": null, "addr:city": null, "addr:housenumber": null, "addr:postcode": null, "addr:state": null, "addr:street": null, "residential": null, "denomination": null, "religion": null, "industrial": null }, "geometry": { "type": "Polygon", "coordinates": [ [ [ -99.7818811, 29.2114313 ], [ -99.7818711, 29.2114399 ], [ -99.7818623, 29.2114395 ], [ -99.7818535, 29.2114293 ], [ -99.7817657, 29.2111768 ], [ -99.781784, 29.2111673 ], [ -99.7818015, 29.2111692 ], [ -99.781819, 29.2112138 ], [ -99.7820423, 29.2111259 ], [ -99.7820058, 29.2110488 ], [ -99.782008, 29.2110329 ], [ -99.782124, 29.2109845 ], [ -99.7821401, 29.211003 ], [ -99.7821554, 29.2109972 ], [ -99.7822736, 29.2112819 ], [ -99.7822751, 29.2112997 ], [ -99.7822663, 29.2113163 ], [ -99.7822473, 29.2113239 ], [ -99.7822371, 29.2113189 ], [ -99.782216, 29.21128 ], [ -99.7818847, 29.2113902 ], [ -99.7818667, 29.2113975 ], [ -99.7818811, 29.2114313 ] ] ] } },
{ "type": "Feature", "properties": { "element": "way", "id": 1135388133, "landuse": "commercial", "name": null, "ele": null, "gnis:feature_id": null, "addr:city": null, "addr:housenumber": null, "addr:postcode": null, "addr:state": null, "addr:street": null, "residential": null, "denomination": null, "religion": null, "industrial": null }, "geometry": { "type": "Polygon", "coordinates": [ [ [ -99.784756, 29.2116443 ], [ -99.7844796, 29.2110008 ], [ -99.7850697, 29.210821 ], [ -99.7853141, 29.2114803 ], [ -99.784756, 29.2116443 ] ] ] } },
{ "type": "Feature", "properties": { "element": "way", "id": 1063718247, "landuse": "grass", "name": null, "ele": null, "gnis:feature_id": null, "addr:city": null, "addr:housenumber": null, "addr:postcode": null, "addr:state": null, "addr:street": null, "residential": null, "denomination": null, "religion": null, "industrial": null }, "geometry": { "type": "Polygon", "coordinates": [ [ [ -99.7823303, 29.2114681 ], [ -99.7823255, 29.2114807 ], [ -99.782311, 29.2114916 ], [ -99.7822995, 29.2114916 ], [ -99.7822629, 29.2114025 ], [ -99.7822716, 29.2113925 ], [ -99.7822928, 29.2113933 ], [ -99.7823033, 29.2113975 ], [ -99.7823303, 29.2114681 ] ] ] } },
{ "type": "Feature", "properties": { "element": "way", "id": 1063718248, "landuse": "grass", "name": null, "ele": null, "gnis:feature_id": null, "addr:city": null, "addr:housenumber": null, "addr:postcode": null, "addr:state": null, "addr:street": null, "residential": null, "denomination": null, "religion": null, "industrial": null }, "geometry": { "type": "Polygon", "coordinates": [ [ [ -99.7822733, 29.2115866 ], [ -99.7822853, 29.2115783 ], [ -99.7823495, 29.2115584 ], [ -99.7823647, 29.2115667 ], [ -99.7823914, 29.2116543 ], [ -99.7823876, 29.2116621 ], [ -99.7823144, 29.2116853 ], [ -99.7822733, 29.2115866 ] ] ] } },
{ "type": "Feature", "properties": { "element": "way", "id": 1063718244, "landuse": "grass", "name": null, "ele": null, "gnis:feature_id": null, "addr:city": null, "addr:housenumber": null, "addr:postcode": null, "addr:state": null, "addr:street": null, "residential": null, "denomination": null, "religion": null, "industrial": null }, "geometry": { "type": "Polygon", "coordinates": [ [ [ -99.7817237, 29.2115284 ], [ -99.781799, 29.2117082 ], [ -99.7815849, 29.2117766 ], [ -99.7815095, 29.2115967 ], [ -99.7817237, 29.2115284 ] ] ] } },
{ "type": "Feature", "properties": { "element": "way", "id": 1063718254, "landuse": "grass", "name": null, "ele": null, "gnis:feature_id": null, "addr:city": null, "addr:housenumber": null, "addr:postcode": null, "addr:state": null, "addr:street": null, "residential": null, "denomination": null, "religion": null, "industrial": null }, "geometry": { "type": "Polygon", "coordinates": [ [ [ -99.781797, 29.2118513 ], [ -99.7818757, 29.2120649 ], [ -99.7819714, 29.212038 ], [ -99.7819854, 29.2120403 ], [ -99.7819962, 29.2120536 ], [ -99.7819988, 29.2120719 ], [ -99.7819791, 29.2120885 ], [ -99.7818466, 29.2121257 ], [ -99.7817502, 29.2118644 ], [ -99.781797, 29.2118513 ] ] ] } },
{ "type": "Feature", "properties": { "element": "way", "id": 1063718209, "landuse": "grass", "name": null, "ele": null, "gnis:feature_id": null, "addr:city": null, "addr:housenumber": null, "addr:postcode": null, "addr:state": null, "addr:street": null, "residential": null, "denomination": null, "religion": null, "industrial": null }, "geometry": { "type": "Polygon", "coordinates": [ [ [ -99.7815423, 29.2123598 ], [ -99.7814273, 29.2123968 ], [ -99.7814287, 29.2123683 ], [ -99.7814438, 29.2123635 ], [ -99.781739, 29.2122682 ], [ -99.7817449, 29.2122854 ], [ -99.7817787, 29.2123664 ], [ -99.7815711, 29.2124325 ], [ -99.7815423, 29.2123598 ] ] ] } },
{ "type": "Feature", "properties": { "element": "way", "id": 1063718210, "landuse": "grass", "name": null, "ele": null, "gnis:feature_id": null, "addr:city": null, "addr:housenumber": null, "addr:postcode": null, "addr:state": null, "addr:street": null, "residential": null, "denomination": null, "religion": null, "industrial": null }, "geometry": { "type": "Polygon", "coordinates": [ [ [ -99.7814756, 29.2125139 ], [ -99.7814507, 29.2125246 ], [ -99.7814671, 29.212562 ], [ -99.7814913, 29.2125544 ], [ -99.7815088, 29.2125999 ], [ -99.781602, 29.2125704 ], [ -99.7816471, 29.2125822 ], [ -99.7814365, 29.2126434 ], [ -99.7813218, 29.2123427 ], [ -99.7813851, 29.2123243 ], [ -99.7814313, 29.212347 ], [ -99.7814438, 29.2123635 ], [ -99.7814287, 29.2123683 ], [ -99.7814273, 29.2123968 ], [ -99.7814272, 29.2124002 ], [ -99.7814756, 29.2125139 ] ] ] } },
{ "type": "Feature", "properties": { "element": "way", "id": 1063718211, "landuse": "grass", "name": null, "ele": null, "gnis:feature_id": null, "addr:city": null, "addr:housenumber": null, "addr:postcode": null, "addr:state": null, "addr:street": null, "residential": null, "denomination": null, "religion": null, "industrial": null }, "geometry": { "type": "Polygon", "coordinates": [ [ [ -99.7817109, 29.2125645 ], [ -99.7816471, 29.2125822 ], [ -99.781602, 29.2125704 ], [ -99.7817722, 29.2125153 ], [ -99.7817912, 29.2125665 ], [ -99.7819038, 29.2125351 ], [ -99.7818959, 29.2125119 ], [ -99.7819633, 29.2124909 ], [ -99.7819741, 29.212521 ], [ -99.7817243, 29.2125997 ], [ -99.7817109, 29.2125645 ] ] ] } },
{ "type": "Feature", "properties": { "element": "way", "id": 1135387218, "landuse": "retail", "name": null, "ele": null, "gnis:feature_id": null, "addr:city": null, "addr:housenumber": null, "addr:postcode": null, "addr:state": null, "addr:street": null, "residential": null, "denomination": null, "religion": null, "industrial": null }, "geometry": { "type": "Polygon", "coordinates": [ [ [ -99.7912522, 29.2088011 ], [ -99.7905474, 29.2090318 ], [ -99.7903896, 29.2086943 ], [ -99.7896382, 29.2089437 ], [ -99.7894562, 29.2089967 ], [ -99.7894056, 29.2088644 ], [ -99.7893306, 29.2086939 ], [ -99.7901682, 29.2084351 ], [ -99.7909136, 29.2081685 ], [ -99.7912522, 29.2088011 ] ] ] } },
{ "type": "Feature", "properties": { "element": "way", "id": 1135387219, "landuse": "commercial", "name": null, "ele": null, "gnis:feature_id": null, "addr:city": null, "addr:housenumber": null, "addr:postcode": null, "addr:state": null, "addr:street": null, "residential": null, "denomination": null, "religion": null, "industrial": null }, "geometry": { "type": "Polygon", "coordinates": [ [ [ -99.7895657, 29.2093354 ], [ -99.7885898, 29.2096683 ], [ -99.7883171, 29.2090059 ], [ -99.7893123, 29.2087015 ], [ -99.7895657, 29.2093354 ] ] ] } },
{ "type": "Feature", "properties": { "element": "way", "id": 459863964, "landuse": "industrial", "name": null, "ele": null, "gnis:feature_id": null, "addr:city": null, "addr:housenumber": null, "addr:postcode": null, "addr:state": null, "addr:street": null, "residential": null, "denomination": null, "religion": null, "industrial": null }, "geometry": { "type": "Polygon", "coordinates": [ [ [ -99.8195712, 29.2102994 ], [ -99.8188604, 29.2105932 ], [ -99.8180517, 29.2109327 ], [ -99.8170017, 29.2113412 ], [ -99.8163378, 29.2115882 ], [ -99.8160682, 29.2110931 ], [ -99.8157947, 29.2106202 ], [ -99.8157169, 29.2104879 ], [ -99.8166476, 29.2100864 ], [ -99.8176668, 29.209665 ], [ -99.817923, 29.2095713 ], [ -99.8181966, 29.2094847 ], [ -99.8184205, 29.2094426 ], [ -99.8186378, 29.2094168 ], [ -99.8188443, 29.2094203 ], [ -99.8190214, 29.2094391 ], [ -99.8192118, 29.20948 ], [ -99.8194975, 29.2095748 ], [ -99.8196678, 29.209665 ], [ -99.8198233, 29.209768 ], [ -99.8199414, 29.2098651 ], [ -99.8201224, 29.2100618 ], [ -99.8195712, 29.2102994 ] ] ] } },
{ "type": "Feature", "properties": { "element": "way", "id": 367973820, "landuse": "cemetery", "name": "Pioneer Park", "ele": "280", "gnis:feature_id": "1365337", "addr:city": null, "addr:housenumber": null, "addr:postcode": null, "addr:state": null, "addr:street": null, "residential": null, "denomination": null, "religion": null, "industrial": null }, "geometry": { "type": "Polygon", "coordinates": [ [ [ -99.7926832, 29.2155899 ], [ -99.7922204, 29.2143668 ], [ -99.7925023, 29.2142735 ], [ -99.7935154, 29.2153215 ], [ -99.7926832, 29.2155899 ] ] ] } },
{ "type": "Feature", "properties": { "element": "way", "id": 822485864, "landuse": "industrial", "name": null, "ele": null, "gnis:feature_id": null, "addr:city": null, "addr:housenumber": null, "addr:postcode": null, "addr:state": null, "addr:street": null, "residential": null, "denomination": null, "religion": null, "industrial": null }, "geometry": { "type": "Polygon", "coordinates": [ [ [ -99.8299903, 29.2416507 ], [ -99.8299313, 29.2406022 ], [ -99.8296523, 29.2401341 ], [ -99.8297113, 29.2393805 ], [ -99.83, 29.239414413672996 ], [ -99.83, 29.241651653826967 ], [ -99.8299903, 29.2416507 ] ] ] } },
{ "type": "Feature", "properties": { "element": "way", "id": 1064488257, "landuse": "residential", "name": "Brownstone Apartments", "ele": null, "gnis:feature_id": null, "addr:city": "Uvalde", "addr:housenumber": "2224", "addr:postcode": "78801", "addr:state": "TX", "addr:street": "East Main Street", "residential": "apartments", "denomination": null, "religion": null, "industrial": null }, "geometry": { "type": "Polygon", "coordinates": [ [ [ -99.7674096, 29.2220442 ], [ -99.7677104, 29.2225914 ], [ -99.7666402, 29.2230343 ], [ -99.7666239, 29.2229936 ], [ -99.7664611, 29.2225893 ], [ -99.7663991, 29.2223448 ], [ -99.766406, 29.2222987 ], [ -99.7664267, 29.2222506 ], [ -99.7667711, 29.2218859 ], [ -99.7667642, 29.2218318 ], [ -99.7667275, 29.2217456 ], [ -99.7666402, 29.2216414 ], [ -99.7665162, 29.2215371 ], [ -99.7664657, 29.221461 ], [ -99.7664726, 29.2213928 ], [ -99.7665543, 29.2213108 ], [ -99.7675185, 29.2203421 ], [ -99.7679152, 29.220192 ], [ -99.768664, 29.2215559 ], [ -99.7674096, 29.2220442 ] ] ] } },
{ "type": "Feature", "properties": { "element": "way", "id": 1064488258, "landuse": "retail", "name": "Uvalde Plaza", "ele": null, "gnis:feature_id": null, "addr:city": null, "addr:housenumber": null, "addr:postcode": null, "addr:state": null, "addr:street": null, "residential": null, "denomination": null, "religion": null, "industrial": null }, "geometry": { "type": "Polygon", "coordinates": [ [ [ -99.7664726, 29.2213928 ], [ -99.7664657, 29.221461 ], [ -99.7665162, 29.2215371 ], [ -99.7666402, 29.2216414 ], [ -99.7667275, 29.2217456 ], [ -99.7667642, 29.2218318 ], [ -99.7667711, 29.2218859 ], [ -99.7664267, 29.2222506 ], [ -99.766406, 29.2222987 ], [ -99.7663991, 29.2223448 ], [ -99.7664611, 29.2225893 ], [ -99.7666239, 29.2229936 ], [ -99.7654873, 29.2234613 ], [ -99.7644273, 29.2225026 ], [ -99.7642188, 29.2227051 ], [ -99.7636482, 29.2222636 ], [ -99.7654105, 29.2204832 ], [ -99.7659548, 29.2209234 ], [ -99.7659946, 29.2208851 ], [ -99.7665543, 29.2213108 ], [ -99.7664726, 29.2213928 ] ] ] } },
{ "type": "Feature", "properties": { "element": "way", "id": 1064491004, "landuse": "residential", "name": "The View", "ele": null, "gnis:feature_id": null, "addr:city": null, "addr:housenumber": null, "addr:postcode": null, "addr:state": null, "addr:street": null, "residential": null, "denomination": null, "religion": null, "industrial": null }, "geometry": { "type": "Polygon", "coordinates": [ [ [ -99.7699784, 29.2374716 ], [ -99.7700004, 29.2348632 ], [ -99.7710593, 29.2324087 ], [ -99.7710593, 29.2321873 ], [ -99.7710263, 29.2320044 ], [ -99.770927, 29.2317445 ], [ -99.7700951, 29.2304768 ], [ -99.7784064, 29.2291525 ], [ -99.7785641, 29.2294895 ], [ -99.7784009, 29.2332441 ], [ -99.7787273, 29.2344023 ], [ -99.7787436, 29.2354892 ], [ -99.7786892, 29.2355984 ], [ -99.7773294, 29.2370318 ], [ -99.7770901, 29.2371647 ], [ -99.7766549, 29.2373308 ], [ -99.7771771, 29.2390158 ], [ -99.776557, 29.2392578 ], [ -99.7769432, 29.239965 ], [ -99.7752135, 29.2405678 ], [ -99.7744411, 29.2381852 ], [ -99.769165, 29.2397514 ], [ -99.7699784, 29.2374716 ] ] ] } },
{ "type": "Feature", "properties": { "element": "way", "id": 1338779869, "landuse": "retail", "name": null, "ele": null, "gnis:feature_id": null, "addr:city": null, "addr:housenumber": null, "addr:postcode": null, "addr:state": null, "addr:street": null, "residential": null, "denomination": null, "religion": null, "industrial": null }, "geometry": { "type": "Polygon", "coordinates": [ [ [ -99.7518486, 29.2356263 ], [ -99.7518271, 29.2356427 ], [ -99.7518083, 29.2356263 ], [ -99.7517735, 29.235638 ], [ -99.7515187, 29.2354343 ], [ -99.7514677, 29.2354624 ], [ -99.751296, 29.2353337 ], [ -99.7514838, 29.2351488 ], [ -99.7521812, 29.2356801 ], [ -99.7520739, 29.2357761 ], [ -99.7518486, 29.2356263 ] ] ] } }
]
}
