{
"type": "FeatureCollection",
"name": "uvalde_aoi",
"crs": { "type": "name", "properties": { "name": "urn:ogc:def:crs:OGC:1.3:CRS84" } },
"features": [
{ "type": "Feature", "properties": { "name": "uvalde_nueces_corridor", "description": "Compact flood-focused AOI for Uvalde, Texas centered on the urban core and nearby Nueces River corridor" }, "geometry": { "type": "Polygon", "coordinates": [ [ [ -99.72, 29.16 ], [ -99.72, 29.26 ], [ -99.83, 29.26 ], [ -99.83, 29.16 ], [ -99.72, 29.16 ] ] ] } }
]
}
